SIRION PATHFINDER-2     
1 43759U 18099B   26160.12125075  .00003687  00000+0  20381-3 0  9993
2 43759  97.4257 209.3708 0007780 337.8238  22.2656 15.14478540411401
CORVUS BC4              
1 43767U 18099K   26160.11689579  .00003814  00000+0  22298-3 0  9996
2 43767  97.4073 203.3337 0009111  39.5268 320.6626 15.12431471411184
M2 PATHFINDER           
1 45727U 20037E   26160.06665635  .00002244  00000+0  16402-3 0  9996
2 45727  97.8162 351.2072 0011716 173.3077 186.8307 15.04641993324277
NETSAT-4                
1 46504U 20068U   26159.76302284  .00018603  00000+0  41540-3 0  9994
2 46504  97.8612 167.3284 0004934  12.8188 347.3184 15.43586088314470
NETSAT-3                
1 46505U 20068V   26159.76279341  .00019055  00000+0  44273-3 0  9990
2 46505  97.8660 165.5554 0005393  31.0112 329.1451 15.42389149314387
NETSAT-1                
1 46506U 20068W   26159.98450189  .00012410  00000+0  37418-3 0  9997
2 46506  97.8749 160.2219 0005968  55.5547 304.6258 15.34449215314045
NETSAT-2                
1 46507U 20068X   26160.00870838  .00019387  00000+0  40371-3 0  9992
2 46507  97.8623 167.4592 0004567  48.2139 311.9499 15.45645345314479
GREENCUBE (IO-117)      
1 53109U 22080E   26152.46502029 -.00000003  00000+0  00000+0 0  9996
2 53109  70.1435 303.7143 0008869 293.3663  66.6064  6.42583280 91055
SITRO-AIS 5 (KATYS)     
1 57176U 23091L   26160.15311858  .00010649  00000+0  37671-3 0  9994
2 57176  97.5063 223.9770 0012729 128.2698 231.9689 15.29270412163118
SITRO-AIS 6 (CHIRKIN)   
1 57192U 23091AC  26160.11361544  .00008893  00000+0  35016-3 0  9994
2 57192  97.5071 223.0990 0012976 131.4082 228.8273 15.25779535163050
SITRO-AIS 8 (ANOKHIN)   
1 57193U 23091AD  26160.11877973  .00012329  00000+0  40166-3 0  9994
2 57193  97.5060 225.4984 0011842 124.5216 235.7145 15.31911676163215
SITRO-AIS 7 (FARTUSHNIY)
1 57194U 23091AE  26160.11512154  .00008492  00000+0  33765-3 0  9995
2 57194  97.5069 222.9295 0012796 132.2572 227.9754 15.25470044163044
SITRO-AIS 10 (BURDAEV)  
1 57199U 23091AK  26160.18405479  .00017834  00000+0  47365-3 0  9999
2 57199  97.5083 230.5368 0007904 103.8223 256.3902 15.38304859163532
SITRO-AIS 9 (SHCHUKIN)  
1 57201U 23091AM  26160.14286691  .00018041  00000+0  48657-3 0  9998
2 57201  97.5081 230.2309 0008150 103.9347 256.2804 15.37825123163517
SITRO-AIS 12 (SMIRENNIY)
1 57204U 23091AQ  26160.13500580  .00017355  00000+0  46388-3 0  9992
2 57204  97.5093 230.6848 0007745  99.0244 261.1877 15.38114482163532
SITRO-AIS 11 (SHEFFER)  
1 57208U 23091AU  26160.15063256  .00018321  00000+0  48294-3 0  9994
2 57208  97.5092 230.9424 0007644  98.9589 261.2521 15.38532764163552
SITRO-AIS 25            
1 59066U 24039R   26160.20223551  .00003016  00000+0  23621-3 0  9995
2 59066  95.3912 229.6054 0144494 356.8621   3.1683 14.93470916123531
SITRO-AIS 26            
1 59067U 24039S   26160.20252131  .00002995  00000+0  23565-3 0  9994
2 59067  95.3912 229.5050 0144848 357.4355   2.6110 14.93267681123522
SITRO-AIS 27            
1 59068U 24039T   26160.17499898  .00002506  00000+0  19596-3 0  9991
2 59068  95.3913 229.7541 0143926 356.1267   3.8832 14.93684630123548
SITRO-AIS 28            
1 59071U 24039U   26160.21961227  .00002725  00000+0  21270-3 0  9995
2 59071  95.3916 229.8316 0143779 355.8740   4.1288 14.93721161123555
GRBBETA                 
1 60237U 24128C   26159.72475897  .00004223  00000+0  29272-3 0  9992
2 60237  61.9897 245.9555 0041799 132.8784 227.5832 15.06584103104993
OOV-CUBE (TUBSAT-30)    
1 60240U 24128F   26159.80454764  .00002654  00000+0  20896-3 0  9994
2 60240  61.9950 254.8019 0045688 131.8693 228.6311 15.02739260104851
ROBUSTA-3A (MEDITERRAN*)
1 60243U 24128J   26159.80006560  .00007653  00000+0  45182-3 0  9993
2 60243  61.9858 237.9014 0042331 126.3779 234.1234 15.11578086105151
LASARSAT                
1 62391U 24247Q   26159.90010414  .00034289  00000+0  69420-3 0  9991
2 62391  44.9750 308.7653 0008365 285.6781  74.3185 15.45852185 82038
CROCUBE                 
1 62394U 24247T   26160.10151535  .00032550  00000+0  61925-3 0  9999
2 62394  44.9725 305.0974 0008206 290.1474  69.8533 15.47679715 82093
FORESAIL-1 PRIME        
1 66778U 25276DS  26159.16737006  .00004435  00000+0  21751-3 0  9993
2 66778  97.4199 232.6039 0003714 122.1307 238.0288 15.18619338 29031
KNACKSAT-2              
1 67683U 98067XZ  26159.76435122  .00049104  00000+0  61524-3 0  9991
2 67683  51.6310 336.8215 0010220 178.4517 181.6510 15.59209268 18967
